$$SOE
2460154.500000000, A.D. 2023-Jul-29 00:00:00.0000, 2.308134336780814E+09, 3.646156654660842E+09, -5.644174186915586E+08,
2460161.500000000, A.D. 2023-Aug-05 00:00:00.0000, 2.305080357920743E+09, 3.648267107412291E+09, -5.649939449081028E+08,
2460168.500000000, A.D. 2023-Aug-12 00:00:00.0000, 2.302024933357068E+09, 3.650375379965489E+09, -5.655701350893101E+08,
2460175.500000000, A.D. 2023-Aug-19 00:00:00.0000, 2.298968063101177E+09, 3.652481468953559E+09, -5.661459888254133E+08,
2460182.500000000, A.D. 2023-Aug-26 00:00:00.0000, 2.295909747470822E+09, 3.654585370613584E+09, -5.667215057312114E+08,
2460189.500000000, A.D. 2023-Sep-02 00:00:00.0000, 2.292849987067862E+09, 3.656687080805293E+09, -5.672966854446491E+08,
2460196.500000000, A.D. 2023-Sep-09 00:00:00.0000, 2.289788782769631E+09, 3.658786594917214E+09, -5.678715276367611E+08,
2460203.500000000, A.D. 2023-Sep-16 00:00:00.0000, 2.286726135902356E+09, 3.660883907602284E+09, -5.684460320531049E+08,
2460210.500000000, A.D. 2023-Sep-23 00:00:00.0000, 2.283662049013036E+09, 3.662979012629709E+09, -5.690201986013774E+08,
2460217.500000000, A.D. 2023-Sep-30 00:00:00.0000, 2.280596526900221E+09, 3.665071904043788E+09, -5.695940273566591E+08,
2460224.500000000, A.D. 2023-Oct-07 00:00:00.0000, 2.277529575549937E+09, 3.667162578086867E+09, -5.701675183126268E+08,
2460231.500000000, A.D. 2023-Oct-14 00:00:00.0000, 2.274461200016668E+09, 3.669251032573276E+09, -5.707406712447107E+08,
2460238.500000000, A.D. 2023-Oct-21 00:00:00.0000, 2.271391404477999E+09, 3.671337265316958E+09, -5.713134858501672E+08,
2460245.500000000, A.D. 2023-Oct-28 00:00:00.0000, 2.268320193038552E+09, 3.673421273872893E+09, -5.718859618494874E+08,
2460252.500000000, A.D. 2023-Nov-04 00:00:00.0000, 2.265247570033198E+09, 3.675503055821975E+09, -5.724580989971876E+08,
2460259.500000000, A.D. 2023-Nov-11 00:00:00.0000, 2.262173540007100E+09, 3.677582608999401E+09, -5.730298970670358E+08,
2460266.500000000, A.D. 2023-Nov-18 00:00:00.0000, 2.259098107592089E+09, 3.679659931602325E+09, -5.736013558368405E+08,
2460273.500000000, A.D. 2023-Nov-25 00:00:00.0000, 2.256021277352201E+09, 3.681735022199298E+09, -5.741724750774186E+08,
2460280.500000000, A.D. 2023-Dec-02 00:00:00.0000, 2.252943053626558E+09, 3.683807879630311E+09, -5.747432545490658E+08,
2460287.500000000, A.D. 2023-Dec-09 00:00:00.0000, 2.249863440447422E+09, 3.685878502738528E+09, -5.753136940173590E+08,
2460294.500000000, A.D. 2023-Dec-16 00:00:00.0000, 2.246782441820963E+09, 3.687946889946282E+09, -5.758837933136168E+08,
2460301.500000000, A.D. 2023-Dec-23 00:00:00.0000, 2.243700062719197E+09, 3.690013039362761E+09, -5.764535524158245E+08,
2460308.500000000, A.D. 2023-Dec-30 00:00:00.0000, 2.240616309442884E+09, 3.692076950472661E+09, -5.770229713414787E+08,
2460315.500000000, A.D. 2024-Jan-06 00:00:00.0000, 2.237531187582906E+09, 3.694138625045072E+09, -5.775920498828543E+08,
2460322.500000000, A.D. 2024-Jan-13 00:00:00.0000, 2.234444700752905E+09, 3.696198065455697E+09, -5.781607876236132E+08,
2460329.500000000, A.D. 2024-Jan-20 00:00:00.0000, 2.231356851316711E+09, 3.698255273506991E+09, -5.787291840971422E+08,
2460336.500000000, A.D. 2024-Jan-27 00:00:00.0000, 2.228267641081837E+09, 3.700310250398411E+09, -5.792972388474967E+08,
2460343.500000000, A.D. 2024-Feb-03 00:00:00.0000, 2.225177071530663E+09, 3.702362996898152E+09, -5.798649514314092E+08,
2460350.500000000, A.D. 2024-Feb-10 00:00:00.0000, 2.222085143866669E+09, 3.704413513425274E+09, -5.804323214108193E+08,
2460357.500000000, A.D. 2024-Feb-17 00:00:00.0000, 2.218991859014433E+09, 3.706461800050117E+09, -5.809993483481619E+08,
2460364.500000000, A.D. 2024-Feb-24 00:00:00.0000, 2.215897217609305E+09, 3.708507856427814E+09, -5.815660318066591E+08,
2460371.500000000, A.D. 2024-Mar-02 00:00:00.0000, 2.212801220006130E+09, 3.710551681632382E+09, -5.821323713610681E+08,
2460378.500000000, A.D. 2024-Mar-09 00:00:00.0000, 2.209703866445811E+09, 3.712593273828513E+09, -5.826983666368302E+08,
2460385.500000000, A.D. 2024-Mar-16 00:00:00.0000, 2.206605157775033E+09, 3.714632629978365E+09, -5.832640173978237E+08,
2460392.500000000, A.D. 2024-Mar-23 00:00:00.0000, 2.203505096615546E+09, 3.716669746692361E+09, -5.838293235826130E+08,
2460399.500000000, A.D. 2024-Mar-30 00:00:00.0000, 2.200403686741897E+09, 3.718704622197232E+09, -5.843942850858476E+08,
2460406.500000000, A.D. 2024-Apr-06 00:00:00.0000, 2.197300930923607E+09, 3.720737256053672E+09, -5.849589015835004E+08,
2460413.500000000, A.D. 2024-Apr-13 00:00:00.0000, 2.194196830782958E+09, 3.722767647460044E+09, -5.855231726593224E+08,
2460420.500000000, A.D. 2024-Apr-20 00:00:00.0000, 2.191091387716207E+09, 3.724795794818781E+09, -5.860870979264102E+08,
2460427.500000000, A.D. 2024-Apr-27 00:00:00.0000, 2.187984603361252E+09, 3.726821696004103E+09, -5.866506770505936E+08,
2460434.500000000, A.D. 2024-May-04 00:00:00.0000, 2.184876479699620E+09, 3.728845348627763E+09, -5.872139097411191E+08,
2460441.500000000, A.D. 2024-May-11 00:00:00.0000, 2.181767019031152E+09, 3.730866750201174E+09, -5.877767957387127E+08,
2460448.500000000, A.D. 2024-May-18 00:00:00.0000, 2.178656223903351E+09, 3.732885898215834E+09, -5.883393348066301E+08,
2460455.500000000, A.D. 2024-May-25 00:00:00.0000, 2.175544097020126E+09, 3.734902790135229E+09, -5.889015267273765E+08,
2460462.500000000, A.D. 2024-Jun-01 00:00:00.0000, 2.172430641189760E+09, 3.736917423241118E+09, -5.894633713150434E+08,
2460469.500000000, A.D. 2024-Jun-08 00:00:00.0000, 2.169315859558492E+09, 3.738929794311555E+09, -5.900248684675032E+08,
2460476.500000000, A.D. 2024-Jun-15 00:00:00.0000, 2.166199756529195E+09, 3.740939899676015E+09, -5.905860182502917E+08,
2460483.500000000, A.D. 2024-Jun-22 00:00:00.0000, 2.163082338359976E+09, 3.742947736822992E+09, -5.911468208236713E+08,
2460490.500000000, A.D. 2024-Jun-29 00:00:00.0000, 2.159963611321029E+09, 3.744953305739470E+09, -5.917072761668123E+08,
2460497.500000000, A.D. 2024-Jul-06 00:00:00.0000, 2.156843580054770E+09, 3.746956607511294E+09, -5.922673840434356E+08,
2460504.500000000, A.D. 2024-Jul-13 00:00:00.0000, 2.153722248088491E+09, 3.748957643008633E+09, -5.928271441567398E+08,
2460511.500000000, A.D. 2024-Jul-20 00:00:00.0000, 2.150599618513891E+09, 3.750956412805270E+09, -5.933865562175325E+08,
2460518.500000000, A.D. 2024-Jul-27 00:00:00.0000, 2.147475694177475E+09, 3.752952917372334E+09, -5.939456199437886E+08,
2460525.500000000, A.D. 2024-Aug-03 00:00:00.0000, 2.144350477654765E+09, 3.754947157171593E+09, -5.945043350473815E+08,
2460532.500000000, A.D. 2024-Aug-10 00:00:00.0000, 2.141223971174089E+09, 3.756939132644047E+09, -5.950627012236985E+08,
2460539.500000000, A.D. 2024-Aug-17 00:00:00.0000, 2.138096176537282E+09, 3.758928844115860E+09, -5.956207181468980E+08,
2460546.500000000, A.D. 2024-Aug-24 00:00:00.0000, 2.134967095065134E+09, 3.760916291599699E+09, -5.961783854754227E+08,
2460553.500000000, A.D. 2024-Aug-31 00:00:00.0000, 2.131836727683201E+09, 3.762901474430399E+09, -5.967357028836526E+08,
2460560.500000000, A.D. 2024-Sep-07 00:00:00.0000, 2.128705075513493E+09, 3.764884390861666E+09, -5.972926701431565E+08,
2460567.500000000, A.D. 2024-Sep-14 00:00:00.0000, 2.125572141057264E+09, 3.766865038619987E+09, -5.978492871802247E+08,
2460574.500000000, A.D. 2024-Sep-21 00:00:00.0000, 2.122437927940089E+09, 3.768843416828578E+09, -5.984055538900911E+08,
2460581.500000000, A.D. 2024-Sep-28 00:00:00.0000, 2.119302438731736E+09, 3.770819526073884E+09, -5.989614699270903E+08,
2460588.500000000, A.D. 2024-Oct-05 00:00:00.0000, 2.116165674510512E+09, 3.772793366616442E+09, -5.995170348073344E+08,
2460595.500000000, A.D. 2024-Oct-12 00:00:00.0000, 2.113027635811492E+09, 3.774764937726353E+09, -6.000722480474020E+08,
2460602.500000000, A.D. 2024-Oct-19 00:00:00.0000, 2.109888323207689E+09, 3.776734237872654E+09, -6.006271092006133E+08,
2460609.500000000, A.D. 2024-Oct-26 00:00:00.0000, 2.106747737491824E+09, 3.778701264965425E+09, -6.011816178534446E+08,
2460616.500000000, A.D. 2024-Nov-02 00:00:00.0000, 2.103605879716152E+09, 3.780666016502470E+09, -6.017357736177973E+08,
2460623.500000000, A.D. 2024-Nov-09 00:00:00.0000, 2.100462751187052E+09, 3.782628489641528E+09, -6.022895761262653E+08,
2460630.500000000, A.D. 2024-Nov-16 00:00:00.0000, 2.097318353440458E+09, 3.784588681198611E+09, -6.028430250327002E+08,
2460637.500000000, A.D. 2024-Nov-23 00:00:00.0000, 2.094172688245199E+09, 3.786546587522828E+09, -6.033961200264000E+08,
2460644.500000000, A.D. 2024-Nov-30 00:00:00.0000, 2.091025757842692E+09, 3.788502204205305E+09, -6.039488608824241E+08,
2460651.500000000, A.D. 2024-Dec-07 00:00:00.0000, 2.087877565842510E+09, 3.790455526043060E+09, -6.045012475520337E+08,
2460658.500000000, A.D. 2024-Dec-14 00:00:00.0000, 2.084728118085326E+09, 3.792406548481973E+09, -6.050532801299469E+08,
2460665.500000000, A.D. 2024-Dec-21 00:00:00.0000, 2.081577421154712E+09, 3.794355269298215E+09, -6.056049585869969E+08,
2460672.500000000, A.D. 2024-Dec-28 00:00:00.0000, 2.078425480510333E+09, 3.796301687550908E+09, -6.061562826914307E+08,
2460679.500000000, A.D. 2025-Jan-04 00:00:00.0000, 2.075272300839827E+09, 3.798245802182236E+09, -6.067072521626779E+08,
2460686.500000000, A.D. 2025-Jan-11 00:00:00.0000, 2.072117886808187E+09, 3.800187611924922E+09, -6.072578667546692E+08,
2460693.500000000, A.D. 2025-Jan-18 00:00:00.0000, 2.068962243287840E+09, 3.802127115598249E+09, -6.078081262594333E+08,
2460700.500000000, A.D. 2025-Jan-25 00:00:00.0000, 2.065805375313045E+09, 3.804064312318152E+09, -6.083580304918170E+08,
2460707.500000000, A.D. 2025-Feb-01 00:00:00.0000, 2.062647287948236E+09, 3.805999201591193E+09, -6.089075792749234E+08,
2460714.500000000, A.D. 2025-Feb-08 00:00:00.0000, 2.059487986128849E+09, 3.807931783312127E+09, -6.094567724297597E+08,
2460721.500000000, A.D. 2025-Feb-15 00:00:00.0000, 2.056327474503520E+09, 3.809862057645010E+09, -6.100056097731733E+08,
$$EOE